STARLINK-31922          
1 59846U 24097M   26067.99199708 -.00000203  00000+0  21375-5 0  9995
2 59846  43.0010 277.9877 0001399 265.2974  94.7718 15.27574756101812
2025-155V               
1 64895U 25155V   26068.85787115  .00013705  00000+0  51002-3 0  9990
2 64895  97.4485  37.2490 0008035 152.8264 207.3397 15.27583301 65579
